{
  "type": "FeatureCollection",
  "features": [
    {
      "type": "Feature",
      "properties": {
        "norad_id": 66774,
        "name": "TRANSPORTER-15 DN",
        "group": "last-30-days",
        "lat": 77.60781759416183,
        "lon": -77.94673773133066,
        "alt_km": 500.98153015882235,
        "timestamp": "2025-12-19T20:42:58.813239+00:00",
        "meta_object_name": "TRANSPORTER-15 DN",
        "meta_object_id": "2025-276DN",
        "meta_epoch": "2025-12-19T04:27:47.942784",
        "meta_mean_motion": 15.18532792,
        "meta_eccentricity": 0.00029182,
        "meta_inclination": 97.443,
        "meta_ra_of_asc_node": 64.8749,
        "meta_arg_of_pericenter": 105.9467,
        "meta_mean_anomaly": 254.2089,
        "meta_ephemeris_type": 0,
        "meta_classification_type": "U",
        "meta_norad_cat_id": 66774,
        "meta_element_set_no": 999,
        "meta_rev_at_epoch": 310,
        "meta_bstar": 0.00024586864,
        "meta_mean_motion_dot": 5.009e-05,
        "meta_mean_motion_ddot": 0,
        "tle_line1": "1 66774U 25276DN  25353.18597156  .00005009  00000+0  24587-3 0  9994",
        "tle_line2": "2 66774  97.4430  64.8749 0002918 105.9467 254.2089 15.18532792  3106"
      },
      "geometry": {
        "type": "Point",
        "coordinates": [
          -77.94673773133066,
          77.60781759416183
        ]
      }
    },
    {
      "type": "Feature",
      "properties": {
        "norad_id": 66775,
        "name": "TRANSPORTER-15 DP",
        "group": "last-30-days",
        "lat": 74.66393938934317,
        "lon": -86.03731798150073,
        "alt_km": 501.1916641754897,
        "timestamp": "2025-12-19T20:42:58.813249+00:00",
        "meta_object_name": "TRANSPORTER-15 DP",
        "meta_object_id": "2025-276DP",
        "meta_epoch": "2025-12-19T04:26:55.301856",
        "meta_mean_motion": 15.18599001,
        "meta_eccentricity": 0.0002963,
        "meta_inclination": 97.4355,
        "meta_ra_of_asc_node": 64.858,
        "meta_arg_of_pericenter": 75.617,
        "meta_mean_anomaly": 284.5393,
        "meta_ephemeris_type": 0,
        "meta_classification_type": "U",
        "meta_norad_cat_id": 66775,
        "meta_element_set_no": 999,
        "meta_rev_at_epoch": 310,
        "meta_bstar": 0.00024192331,
        "meta_mean_motion_dot": 4.937e-05,
        "meta_mean_motion_ddot": 0,
        "tle_line1": "1 66775U 25276DP  25353.18536229  .00004937  00000+0  24192-3 0  9990",
        "tle_line2": "2 66775  97.4355  64.8580 0002963  75.6170 284.5393 15.18599001  3100"
      },
      "geometry": {
        "type": "Point",
        "coordinates": [
          -86.03731798150073,
          74.66393938934317
        ]
      }
    },
    {
      "type": "Feature",
      "properties": {
        "norad_id": 66776,
        "name": "TRANSPORTER-15 DQ",
        "group": "last-30-days",
        "lat": 73.31351101313423,
        "lon": -88.62248555299999,
        "alt_km": 500.9986431525085,
        "timestamp": "2025-12-19T20:42:58.813261+00:00",
        "meta_object_name": "TRANSPORTER-15 DQ",
        "meta_object_id": "2025-276DQ",
        "meta_epoch": "2025-12-19T04:26:32.449920",
        "meta_mean_motion": 15.18633876,
        "meta_eccentricity": 0.00029337,
        "meta_inclination": 97.4393,
        "meta_ra_of_asc_node": 64.8674,
        "meta_arg_of_pericenter": 90.7388,
        "meta_mean_anomaly": 269.4183,
        "meta_ephemeris_type": 0,
        "meta_classification_type": "U",
        "meta_norad_cat_id": 66776,
        "meta_element_set_no": 999,
        "meta_rev_at_epoch": 310,
        "meta_bstar": 0.00028923683,
        "meta_mean_motion_dot": 5.923e-05,
        "meta_mean_motion_ddot": 0,
        "tle_line1": "1 66776U 25276DQ  25353.18509780  .00005923  00000+0  28924-3 0  9996",
        "tle_line2": "2 66776  97.4393  64.8674 0002933  90.7388 269.4183 15.18633876  3101"
      },
      "geometry": {
        "type": "Point",
        "coordinates": [
          -88.62248555299999,
          73.31351101313423
        ]
      }
    },
    {
      "type": "Feature",
      "properties": {
        "norad_id": 66777,
        "name": "TRANSPORTER-15 DR",
        "group": "last-30-days",
        "lat": 63.76955518100551,
        "lon": -99.04139674169825,
        "alt_km": 500.8181010118942,
        "timestamp": "2025-12-19T20:42:58.813271+00:00",
        "meta_object_name": "TRANSPORTER-15 DR",
        "meta_object_id": "2025-276DR",
        "meta_epoch": "2025-12-19T04:23:58.590528",
        "meta_mean_motion": 15.18840176,
        "meta_eccentricity": 0.00033411,
        "meta_inclination": 97.4482,
        "meta_ra_of_asc_node": 64.8912,
        "meta_arg_of_pericenter": 120.2686,
        "meta_mean_anomaly": 239.8879,
        "meta_ephemeris_type": 0,
        "meta_classification_type": "U",
        "meta_norad_cat_id": 66777,
        "meta_element_set_no": 999,
        "meta_rev_at_epoch": 310,
        "meta_bstar": 0.00040645126,
        "meta_mean_motion_dot": 8.403e-05,
        "meta_mean_motion_ddot": 0,
        "tle_line1": "1 66777U 25276DR  25353.18331702  .00008403  00000+0  40645-3 0  9994",
        "tle_line2": "2 66777  97.4482  64.8912 0003341 120.2686 239.8879 15.18840176  3106"
      },
      "geometry": {
        "type": "Point",
        "coordinates": [
          -99.04139674169825,
          63.76955518100551
        ]
      }
    },
    {
      "type": "Feature",
      "properties": {
        "norad_id": 66791,
        "name": "STARLINK-35867",
        "group": "last-30-days",
        "lat": -14.398986465679313,
        "lon": 44.777121451913075,
        "alt_km": 373.49784439136965,
        "timestamp": "2025-12-19T20:42:58.813282+00:00",
        "meta_object_name": "STARLINK-35867",
        "meta_object_id": "2025-278A",
        "meta_epoch": "2025-12-19T08:00:01.999872",
        "meta_mean_motion": 15.67526319,
        "meta_eccentricity": 0.00014726,
        "meta_inclination": 42.9989,
        "meta_ra_of_asc_node": 211.9575,
        "meta_arg_of_pericenter": 269.8667,
        "meta_mean_anomaly": 180.2128,
        "meta_ephemeris_type": 0,
        "meta_classification_type": "U",
        "meta_norad_cat_id": 66791,
        "meta_element_set_no": 999,
        "meta_rev_at_epoch": 401,
        "meta_bstar": -0.020351785,
        "meta_mean_motion_dot": -0.02004279,
        "meta_mean_motion_ddot": 0,
        "tle_line1": "1 66791U 25278A   25353.33335648 -.02004279  00000+0 -20352-1 0  9994",
        "tle_line2": "2 66791  42.9989 211.9575 0001472 269.8667 180.2128 15.67526319  4012"
      },
      "geometry": {
        "type": "Point",
        "coordinates": [
          44.777121451913075,
          -14.398986465679313
        ]
      }
    },
    {
      "type": "Feature",
      "properties": {
        "norad_id": 66792,
        "name": "STARLINK-35990",
        "group": "last-30-days",
        "lat": -15.650673028321833,
        "lon": 46.27717238165971,
        "alt_km": 373.79526958080714,
        "timestamp": "2025-12-19T20:42:58.813293+00:00",
        "meta_object_name": "STARLINK-35990",
        "meta_object_id": "2025-278B",
        "meta_epoch": "2025-12-19T08:00:01.999872",
        "meta_mean_motion": 15.67519932,
        "meta_eccentricity": 0.00015406,
        "meta_inclination": 42.9989,
        "meta_ra_of_asc_node": 211.9536,
        "meta_arg_of_pericenter": 279.1286,
        "meta_mean_anomaly": 172.8682,
        "meta_ephemeris_type": 0,
        "meta_classification_type": "U",
        "meta_norad_cat_id": 66792,
        "meta_element_set_no": 999,
        "meta_rev_at_epoch": 401,
        "meta_bstar": -0.020215539,
        "meta_mean_motion_dot": -0.01992068,
        "meta_mean_motion_ddot": 0,
        "tle_line1": "1 66792U 25278B   25353.33335648 -.01992068  00000+0 -20216-1 0  9995",
        "tle_line2": "2 66792  42.9989 211.9536 0001540 279.1286 172.8682 15.67519932  4012"
      },
      "geometry": {
        "type": "Point",
        "coordinates": [
          46.27717238165971,
          -15.650673028321833
        ]
      }
    },
    {
      "type": "Feature",
      "properties": {
        "norad_id": 66793,
        "name": "STARLINK-36051",
        "group": "last-30-days",
        "lat": -18.119316302386878,
        "lon": 49.32826041531489,
        "alt_km": 373.7938803236857,
        "timestamp": "2025-12-19T20:42:58.813303+00:00",
        "meta_object_name": "STARLINK-36051",
        "meta_object_id": "2025-278C",
        "meta_epoch": "2025-12-19T08:00:01.999872",
        "meta_mean_motion": 15.67526786,
        "meta_eccentricity": 0.00014616,
        "meta_inclination": 42.9991,
        "meta_ra_of_asc_node": 211.9432,
        "meta_arg_of_pericenter": 272.4244,
        "meta_mean_anomaly": 183.4058,
        "meta_ephemeris_type": 0,
        "meta_classification_type": "U",
        "meta_norad_cat_id": 66793,
        "meta_element_set_no": 999,
        "meta_rev_at_epoch": 391,
        "meta_bstar": -0.020358671,
        "meta_mean_motion_dot": -0.020049,
        "meta_mean_motion_ddot": 0,
        "tle_line1": "1 66793U 25278C   25353.33335648 -.02004900  00000+0 -20359-1 0  9994",
        "tle_line2": "2 66793  42.9991 211.9432 0001461 272.4244 183.4058 15.67526786  3911"
      },
      "geometry": {
        "type": "Point",
        "coordinates": [
          49.32826041531489,
          -18.119316302386878
        ]
      }
    }
  ]
}